{
"type": "FeatureCollection",
"name": "geojson",
"crs": { "type": "name", "properties": { "name": "urn:ogc:def:crs:EPSG::4686" } },
"features": [
{"type":"Feature","properties":{"OBJECTID":1,"No":1,"identificador_del_tramo":"TRM01","Dirección":"Av. Boyacá entre Cl 66A y Cl 170","Horario":"7:00 a 14:00","No_de_Guardianes":20,"No_de_Servidores":26,"No_de_Policias":5,"Fecha_Actualizacion":"2025-08-22T00:00:00","Estado":"Activa domingos y festivos","Nombre_Tramo":"Norte 1","GLOBALID":"{C64E893D-B3D7-4F15-8BFA-176B873C29EF}","SHAPE.LEN":0.11509667},"geometry":{"type":"MultiLineString","coordinates":[[[-74.099335,4.6810285],[-74.0983693,4.6822667],[-74.0975015,4.683533],[-74.0966605,4.6847778],[-74.0957658,4.686028],[-74.0923213,4.6910984],[-74.0909638,4.6937263],[-74.0907008,4.6941902],[-74.0903519,4.6946006],[-74.0898647,4.6949369],[-74.08934,4.6952197],[-74.0882208,4.6956945],[-74.0870833,4.6960429],[-74.0858759,4.6963565],[-74.0835686,4.6969463],[-74.0831197,4.6970889],[-74.0827996,4.6972849],[-74.0826208,4.6974443],[-74.082322,4.6977632],[-74.0821386,4.6981116],[-74.0820035,4.6984652],[-74.0818546,4.6991395],[-74.0815529,4.7003084],[-74.0809654,4.7026407],[-74.0809761,4.7031275],[-74.0810137,4.7032829],[-74.0811102,4.703599],[-74.0813569,4.7042632],[-74.0817591,4.7055489],[-74.0818198,4.7058994],[-74.0817839,4.7062873],[-74.0814975,4.7069776],[-74.0808336,4.7082994],[-74.0795915,4.7106916],[-74.0792212,4.7111685],[-74.0788026,4.7116081],[-74.078078,4.7125459],[-74.0772673,4.713887],[-74.076521,4.7152388],[-74.0763329,4.7154642],[-74.0760965,4.715941],[-74.0758115,4.7167554],[-74.0755877,4.7174993],[-74.0754336,4.7182432],[-74.075088,4.7197364],[-74.0749165,4.7204482],[-74.0747074,4.7209622],[-74.0741767,4.7221293],[-74.0733062,4.7233582],[-74.0724706,4.7243814],[-74.0719783,4.7249631],[-74.0714298,4.7256036],[-74.070397,4.7268739],[-74.0698874,4.7275204],[-74.069426,4.7282017],[-74.0687822,4.7293023],[-74.0685492,4.7296874],[-74.0683967,4.7300244],[-74.068038,4.7309335],[-74.0674119,4.7323402],[-74.0671237,4.733092],[-74.0670018,4.7335283],[-74.0663637,4.7359019],[-74.0658248,4.7382836],[-74.0657452,4.7386374],[-74.0656629,4.7390073],[-74.0655359,4.7397524],[-74.0652604,4.7412372],[-74.0651468,4.741985],[-74.0650815,4.7427328],[-74.0649669,4.7442283],[-74.0647861,4.7472996],[-74.0649057,4.7503923],[-74.0650364,4.7516162],[-74.0652208,4.7528615],[-74.0657224,4.7566451],[-74.0661462,4.7585456],[-74.0661985,4.7587327],[-74.0662025,4.7589412],[-74.066114,4.7595453],[-74.0659631,4.7599756],[-74.06578537,4.76029569],[-74.05949725,4.76875641],[-74.05927088,4.76918699],[-74.05921032,4.76929918],[-74.05915875,4.76937985],[-74.05911441,4.76942401],[-74.0589803,4.76951244],[-74.05880064,4.76950633],[-74.04987794,4.76303504]]]}},
{"type":"Feature","properties":{"OBJECTID":2,"No":2,"identificador_del_tramo":"TRM02","Dirección":"Cl 116 entre Kr 7 y Av. Boyacá, Kr  15 y Av. Córdoba entre Cl 116 y Cl 127","Horario":"7:00 a 14:00","No_de_Guardianes":17,"No_de_Servidores":6,"No_de_Policias":5,"Fecha_Actualizacion":"2025-08-22T00:00:00","Estado":"Activa domingos y festivos","Nombre_Tramo":"Norte 2","GLOBALID":"{1FB563F7-EED9-45F0-865D-3FB04C43A9D4}","SHAPE.LEN":0.07996339},"geometry":{"type":"MultiLineString","coordinates":[[[-74.0331643,4.6936395],[-74.0357173,4.6946697],[-74.0381845,4.6953162],[-74.0398946,4.6957267],[-74.0415831,4.6962281],[-74.042746,4.6963819],[-74.0432089,4.6964716],[-74.0450151,4.6972246],[-74.0468804,4.6977544],[-74.0486129,4.6984512],[-74.0491288,4.698567],[-74.0496354,4.698656],[-74.050662,4.6988366],[-74.0519073,4.6990509],[-74.0532023,4.6992478],[-74.0557763,4.699655],[-74.0649178,4.7011913],[-74.0651624,4.7012351],[-74.0660507,4.7014982],[-74.0671836,4.7017571],[-74.0673477,4.7018062],[-74.0674998,4.7017979],[-74.0675289,4.7018001]],[[-74.0366387,4.6949134],[-74.036361,4.6948913],[-74.0358896,4.6947854],[-74.0354782,4.6946683],[-74.0350776,4.6945111],[-74.0348483,4.6944844],[-74.0346001,4.6945539],[-74.0344922,4.694616],[-74.0344084,4.6946835],[-74.0334178,4.696882],[-74.033214,4.6973471],[-74.0331389,4.6979406],[-74.0329375,4.7053784],[-74.0327575,4.7128161]],[[-74.0675289,4.7018001],[-74.0694303,4.7002972],[-74.0696394,4.7001961],[-74.06987,4.700127],[-74.0711581,4.6997839],[-74.0724381,4.6994489],[-74.0743049,4.6989612],[-74.0748296,4.6988273],[-74.0753463,4.6987495],[-74.0756019,4.698734],[-74.0758602,4.6987452],[-74.0761192,4.6987932],[-74.0763769,4.6988506],[-74.0775517,4.6994669],[-74.0787103,4.7001181],[-74.0805718,4.7011463],[-74.0809012,4.701314],[-74.0810455,4.7014148],[-74.0810928,4.7015684],[-74.0811766,4.7017566]],[[-74.0644076,4.7092506],[-74.0650111,4.705666],[-74.0651962,4.7045847],[-74.0653142,4.7041837],[-74.0657829,4.70321],[-74.065911,4.7030409],[-74.0661403,4.7028057],[-74.0663871,4.7026439],[-74.0675289,4.7018001]]]}},
{"type":"Feature","properties":{"OBJECTID":3,"No":3,"identificador_del_tramo":"TRM03","Dirección":"Kr 7 y Kr 15 entre Cl 72 y Cl 116","Horario":"7:00 a 14:00","No_de_Guardianes":15,"No_de_Servidores":0,"No_de_Policias":2,"Fecha_Actualizacion":"2025-08-22T00:00:00","Estado":"Activa domingos y festivos","Nombre_Tramo":"Norte 3","GLOBALID":"{6050D668-FDB8-4050-82EE-1BAE0124506B}","SHAPE.LEN":0.09519994},"geometry":{"type":"MultiLineString","coordinates":[[[-74.0553787,4.6550374],[-74.0552807,4.6553211],[-74.0550968,4.6556809],[-74.0547169,4.656295],[-74.0544537,4.6566684],[-74.053827,4.6576099],[-74.0532715,4.6583696],[-74.0527106,4.6590171],[-74.0515029,4.6602425],[-74.0502148,4.6614577],[-74.0489964,4.6628494],[-74.0477129,4.664173],[-74.0472367,4.6646225],[-74.0468786,4.6651628],[-74.0463291,4.6662093],[-74.0458975,4.6672717],[-74.0448923,4.6693406],[-74.0429409,4.6732751],[-74.0427336,4.6735868],[-74.0424564,4.6738664],[-74.0421221,4.6741369],[-74.0414053,4.674694],[-74.041018,4.6750594],[-74.0407434,4.6754543],[-74.0405291,4.6758731],[-74.0404114,4.6762947],[-74.0402591,4.6773169],[-74.0401444,4.6776013],[-74.0400276,4.6778066],[-74.0384544,4.67968],[-74.0383386,4.6798146],[-74.0380645,4.6801844],[-74.0377362,4.6806942],[-74.0373757,4.68147],[-74.0371413,4.6817538],[-74.0366946,4.6827228],[-74.0362506,4.6836997],[-74.0354108,4.6856268],[-74.0352236,4.6861586],[-74.0351061,4.6867012],[-74.0349168,4.6877328],[-74.0347569,4.6885309],[-74.0345595,4.6892569],[-74.034352,4.6899708],[-74.034123,4.6906821],[-74.0331643,4.6936395]],[[-74.0428427,4.7038967],[-74.0429989,4.7007289],[-74.0430702,4.6998113],[-74.0430985,4.6988937],[-74.0431766,4.6975771],[-74.0432405,4.6966247],[-74.0433151,4.6956831],[-74.043459,4.6952166],[-74.0436475,4.6947838],[-74.0438843,4.694351],[-74.0443472,4.693496],[-74.0452676,4.6917755],[-74.0454596,4.6913763],[-74.0456838,4.6909932],[-74.0461643,4.690227],[-74.0468266,4.6892516],[-74.0473413,4.6882254],[-74.0476124,4.687603],[-74.047787,4.6869486],[-74.0480127,4.6856344],[-74.0481153,4.6854205],[-74.048007,4.6854137],[-74.0478987,4.6853669],[-74.0477437,4.6852252],[-74.0476757,4.6850193],[-74.0476814,4.6848147],[-74.0477602,4.6846436],[-74.0479033,4.6844939],[-74.0481253,4.6844617],[-74.0481648,4.6843066],[-74.0482423,4.6842691],[-74.0483439,4.6841301],[-74.0483918,4.6839359],[-74.0484344,4.6836589],[-74.0485946,4.6831956],[-74.0517259,4.6771975],[-74.0533452,4.6740521],[-74.0548786,4.6708959],[-74.0563214,4.6678738],[-74.0579467,4.6649613],[-74.0587727,4.663493],[-74.0596443,4.6620354],[-74.0615659,4.6592445]]]}},
{"type":"Feature","properties":{"OBJECTID":4,"No":4,"identificador_del_tramo":"TRM04","Dirección":"Kr 9 entre Cl 134 y Cl 170, Cl 170 entre Kr 9 y Kr 92 y Cl 147 entre Kr 9 y Kr 19","Horario":"7:00 a 14:00","No_de_Guardianes":18,"No_de_Servidores":2,"No_de_Policias":2,"Fecha_Actualizacion":"2025-08-22T00:00:00","Estado":"Activa domingos y festivos","Nombre_Tramo":"Norte 4","GLOBALID":"{ED6BB79D-8848-44C2-AACF-ADAD9266A917}","SHAPE.LEN":0.10029059},"geometry":{"type":"MultiLineString","coordinates":[[[-74.0327416,4.7128365],[-74.0327111,4.7136526],[-74.03269,4.7143487],[-74.03238823,4.72543112]],[[-74.032248,4.7253513],[-74.03238823,4.72543112]],[[-74.03238823,4.72543112],[-74.0323982,4.7254368],[-74.0410671,4.7293288],[-74.0452728,4.729671]],[[-74.03238823,4.72543112],[-74.0322303,4.7312306],[-74.0317839,4.7484011],[-74.0374918,4.7493306],[-74.0375483,4.7491588],[-74.039316,4.7495777],[-74.041014,4.7500047],[-74.0435376,4.7506093],[-74.0444313,4.7508241],[-74.0451115,4.7511252],[-74.0457917,4.7513649],[-74.0464369,4.7515012],[-74.049193,4.7521506],[-74.0506445,4.7525487],[-74.051279,4.7526729],[-74.0519457,4.752749],[-74.0527599,4.7529828],[-74.0536653,4.7531791],[-74.0542841,4.7533259],[-74.0546562,4.7533069],[-74.0549979,4.753424],[-74.0575053,4.7538827],[-74.0576546,4.7540464],[-74.0579371,4.7542561],[-74.0597814,4.7558384],[-74.0640952,4.759123],[-74.0660402,4.7605809],[-74.0661114,4.7604438],[-74.0682373,4.7619747],[-74.0690105,4.7624528],[-74.0695055,4.7625322],[-74.0702845,4.7622785],[-74.0710421,4.7619714],[-74.0741022,4.7587804],[-74.0743805,4.758498],[-74.0745617,4.7583716],[-74.0749002,4.7582189],[-74.0752124,4.7581487],[-74.0755364,4.7581153],[-74.0759269,4.7580271],[-74.0764718,4.7579576],[-74.0770896,4.7579896]]]}},
{"type":"Feature","properties":{"OBJECTID":5,"No":5,"identificador_del_tramo":"TRM05","Dirección":"Cl 72 entre Kr 7 y Kr 58, Kr 58 entre Cl 66B y Cl 72, Cl 66B entre Kr 58 y Kr 60, y Kr 60 entre Cl 26 y Cl 66B","Horario":"7:00 a 14:00","No_de_Guardianes":16,"No_de_Servidores":2,"No_de_Policias":2,"Fecha_Actualizacion":"2025-08-22T00:00:00","Estado":"Activa domingos y festivos","Nombre_Tramo":"Norte 5","GLOBALID":"{807DC0D3-219A-4966-9A33-DBE0DBEF888F}","SHAPE.LEN":0.06514147},"geometry":{"type":"MultiLineString","coordinates":[[[-74.0994785,4.648156],[-74.0994356,4.6481266],[-74.0991297,4.6480065],[-74.0988722,4.6480922],[-74.0958063,4.650234],[-74.0934835,4.6518545],[-74.0932058,4.6520191],[-74.0926546,4.6524029],[-74.0923206,4.652632],[-74.0920241,4.6528717],[-74.0915813,4.6534526],[-74.0912902,4.6538447],[-74.0908381,4.6547875],[-74.0902237,4.6562026],[-74.0895959,4.6575802],[-74.08918,4.658531],[-74.089027,4.6589738],[-74.0890262,4.6590328],[-74.088969,4.6590758],[-74.0890271,4.6591281],[-74.0890638,4.6592392],[-74.0890792,4.6594315],[-74.0890462,4.6595729],[-74.088932,4.6597889],[-74.0885684,4.6600063],[-74.0884461,4.6601809],[-74.0871033,4.6631765],[-74.0864364,4.6645844],[-74.0863253,4.6648642],[-74.0861659,4.6651359],[-74.0858016,4.6656634],[-74.0851179,4.6668594],[-74.0843913,4.6680234],[-74.0840797,4.66851],[-74.083749,4.6682955],[-74.0839913,4.667953],[-74.0829461,4.6671614],[-74.0791608,4.6720966],[-74.0747585,4.6687337],[-74.0726003,4.667075],[-74.0703884,4.6654429],[-74.0693289,4.6646196],[-74.068248,4.6638176],[-74.0671751,4.6629943],[-74.0660539,4.6622137],[-74.0646699,4.6612667],[-74.0633342,4.6603544],[-74.062154,4.6595064],[-74.0616658,4.6590967],[-74.0615632,4.6592352],[-74.0584301,4.6570955],[-74.0553975,4.6549465]],[[-74.0935912,4.6523314],[-74.0931647,4.6520534]]]}},
{"type":"Feature","properties":{"OBJECTID":6,"No":6,"identificador_del_tramo":"TRM06","Dirección":"Av. Boyacá entre Cl 44 sur y Cl 66A","Horario":"7:00 a 14:00","No_de_Guardianes":19,"No_de_Servidores":6,"No_de_Policias":6,"Fecha_Actualizacion":"2025-08-22T00:00:00","Estado":"Activa domingos y festivos","Nombre_Tramo":"Centro 1","GLOBALID":"{FD3C7F15-B0AE-4ECA-9706-18A98B36C326}","SHAPE.LEN":0.09713964},"geometry":{"type":"MultiLineString","coordinates":[[[-74.1447389,4.5989832],[-74.143835,4.601364],[-74.1429821,4.6036099],[-74.1419454,4.6064492],[-74.1416688,4.6070627],[-74.1414029,4.6080025],[-74.1411984,4.6095451],[-74.1408736,4.6118755],[-74.1404522,4.6142166],[-74.1402065,4.6154803],[-74.1398696,4.6166905],[-74.1389759,4.6201643],[-74.1385558,4.6219279],[-74.1383664,4.6237504],[-74.1376739,4.6306509],[-74.1374054,4.6333112],[-74.1372496,4.6346307],[-74.1371342,4.635277],[-74.1369866,4.6359073],[-74.1364031,4.6377852],[-74.136055,4.6386225],[-74.1356425,4.6394438],[-74.1352301,4.6401701],[-74.1347586,4.6408751],[-74.134212,4.6417325],[-74.1335474,4.6425418],[-74.1317086,4.6445974],[-74.1297356,4.6465381],[-74.1286329,4.6475588],[-74.1275357,4.6483833],[-74.1265082,4.649256],[-74.1244909,4.6514102],[-74.1209094,4.6556253],[-74.1199949,4.6566243],[-74.1190831,4.6577168],[-74.1172246,4.659851],[-74.1135746,4.6640446],[-74.1118854,4.6660722],[-74.1100218,4.6679982],[-74.1062436,4.6717995],[-74.1041197,4.6740081],[-74.1037317,4.6747951],[-74.1035632,4.675194],[-74.1033518,4.6755768],[-74.1030962,4.6759373],[-74.1018608,4.6776366],[-74.1006308,4.6793519],[-74.1000051,4.6802069],[-74.0993311,4.6810405]]]}},
{"type":"Feature","properties":{"OBJECTID":7,"No":7,"identificador_del_tramo":"TRM07","Dirección":"Kr 50 entre Autopista Sur y Cl 6, Cl 13 y Av. Américas entre Kr 50 y Kr 43, Kr 43 entre Cl 13 y Av. Américas, Kr 50 entre Av. Américas y Cl 44, y Cl 44 entre Kr 50 y Kr 60","Horario":"7:00 a 14:00","No_de_Guardianes":19,"No_de_Servidores":5,"No_de_Policias":6,"Fecha_Actualizacion":"2025-08-22T00:00:00","Estado":"Activa domingos y festivos","Nombre_Tramo":"Centro 2","GLOBALID":"{D574E5A8-02EB-4CB7-A9F2-93395402AC62}","SHAPE.LEN":0.08791997},"geometry":{"type":"MultiLineString","coordinates":[[[-74.0958063,4.650234],[-74.0906748,4.6421829],[-74.095363,4.6392241],[-74.0976796,4.6377401],[-74.0988244,4.636982],[-74.099413,4.6365963],[-74.0999586,4.6362025],[-74.1008392,4.635364],[-74.101563,4.6344199],[-74.1029799,4.6325417],[-74.1057445,4.6289131],[-74.1058602,4.6287826],[-74.1059825,4.6284688],[-74.1059618,4.6282798],[-74.1058928,4.6280199],[-74.1056416,4.6277328],[-74.1054118,4.6276168],[-74.1042956,4.6274948],[-74.1019068,4.6272507],[-74.1006829,4.6271059],[-74.0994108,4.6269571],[-74.0996533,4.6264965],[-74.0998537,4.6260978],[-74.1000031,4.625683],[-74.1002416,4.6252806],[-74.1005605,4.6249156],[-74.1009773,4.6245112],[-74.1013432,4.6240907],[-74.1021662,4.6231923],[-74.105745,4.6263144],[-74.1058292,4.6263449],[-74.1058745,4.6263273],[-74.1059598,4.6262787],[-74.1062316,4.6261299],[-74.1064452,4.6260889],[-74.1066576,4.6260466],[-74.107112,4.6261094],[-74.1073754,4.6261722],[-74.1075038,4.6262257],[-74.1075625,4.626354],[-74.1077018,4.6262003],[-74.1097031,4.6236584],[-74.110019,4.6230235],[-74.1103188,4.6223833],[-74.1107218,4.6218366],[-74.1111624,4.6213033],[-74.1120036,4.6202758],[-74.1128019,4.6191787],[-74.1132704,4.6183467],[-74.113653,4.6174959],[-74.1145055,4.6155124],[-74.1143696,4.6154298],[-74.1142109,4.6152575],[-74.1141486,4.6150177],[-74.1141603,4.6149059],[-74.114215,4.614778],[-74.114294,4.6146304],[-74.1144802,4.6144936],[-74.1146249,4.6144758],[-74.1147777,4.6144981],[-74.1149048,4.6145232],[-74.1150238,4.6146179],[-74.1150811,4.6145615],[-74.1150739,4.614195],[-74.1161594,4.6121038],[-74.1167661,4.6108769],[-74.1171016,4.6102447],[-74.1174586,4.6096393],[-74.1188249,4.6072228],[-74.1201402,4.6047983],[-74.1208655,4.60345],[-74.1210866,4.603155],[-74.1213823,4.6030303],[-74.1216226,4.6029519],[-74.1217128,4.6028588],[-74.1217731,4.6027718],[-74.1218025,4.6026969],[-74.1218119,4.6025785],[-74.1218065,4.6024251],[-74.1217931,4.602265],[-74.1218103,4.6020729],[-74.1219107,4.6018366],[-74.1239778,4.5994467],[-74.1249189,4.5982414],[-74.1256529,4.5973085],[-74.1259773,4.5966185],[-74.1262547,4.5958656],[-74.1265804,4.5942632],[-74.1266346,4.5941664],[-74.126713,4.5941258]]]}},
{"type":"Feature","properties":{"OBJECTID":8,"No":8,"identificador_del_tramo":"TRM08","Dirección":"Kr 6 entre Cl 22 sur y Cl 12 sur, Kr 7 entre Cl 12 sur y Cl 6B, Cl 6B y Cl 10 entre Kr 7 y Kr 6, Kr 6 entre Cl 6B y Cl 10, y Kr 7 entre Cl 10 y Cl 72","Horario":"7:00 a 14:00","No_de_Guardianes":20,"No_de_Servidores":5,"No_de_Policias":5,"Fecha_Actualizacion":"2025-08-22T00:00:00","Estado":"Activa domingos y festivos","Nombre_Tramo":"Centro 3","GLOBALID":"{34EBECA6-4A24-45F1-A7FD-2A237363D970}","SHAPE.LEN":0.07286642},"geometry":{"type":"MultiLineString","coordinates":[[[-74.0914729,4.5726953],[-74.09110089,4.5732486],[-74.0889074,4.5762609],[-74.08813798,4.57724829],[-74.08725371,4.57811302],[-74.08669593,4.57889148],[-74.0860789,4.5798907],[-74.08421091,4.58257927],[-74.08381047,4.58294876],[-74.0829554,4.5835953],[-74.08238388,4.58420786],[-74.08206208,4.5846491],[-74.08175444,4.58664734],[-74.08148625,4.5871998],[-74.0810786,4.58818276],[-74.0801695,4.5897128],[-74.07749617,4.59447149]],[[-74.06990449,4.61125984],[-74.0695574,4.6131101],[-74.0695659,4.6138139],[-74.0687462,4.6162696],[-74.0685165,4.6176345],[-74.0681581,4.6189994],[-74.0666366,4.6226809],[-74.0663417,4.6238137],[-74.0660682,4.6249411],[-74.0655214,4.6271746],[-74.0642559,4.6316308],[-74.0639583,4.6326436],[-74.0639558,4.6337714],[-74.0637629,4.6360269],[-74.0632858,4.6382985],[-74.0629667,4.6394557],[-74.0627228,4.6405059],[-74.0613097,4.64545],[-74.0592852,4.6488649],[-74.0582836,4.6507328],[-74.056767,4.652451],[-74.0554002,4.6549559]]]}},
{"type":"Feature","properties":{"OBJECTID":9,"No":9,"identificador_del_tramo":"TRM09","Dirección":"Cl 26 entre Kr 7 y Kr 60","Horario":"6:30 a 14:00","No_de_Guardianes":17,"No_de_Servidores":7,"No_de_Policias":5,"Fecha_Actualizacion":"2025-08-22T00:00:00","Estado":"Activa domingos y festivos","Nombre_Tramo":"Centro 4","GLOBALID":"{ECEF091D-C32F-4C9E-A46D-A94866D0D2F2}","SHAPE.LEN":0.08667432},"geometry":{"type":"MultiLineString","coordinates":[[[-74.0891054,4.6341775],[-74.0898216,4.6344448],[-74.0904573,4.6347255],[-74.0910903,4.6351052],[-74.0914041,4.6353645],[-74.0916723,4.6356265],[-74.0919405,4.6359633],[-74.092411,4.6366337],[-74.0933713,4.6381174],[-74.0944495,4.6397161],[-74.0993149,4.6475123],[-74.0995616,4.6473519],[-74.0977488,4.644553],[-74.0947662,4.6399734],[-74.093932,4.6386233],[-74.0928949,4.6367198],[-74.0925971,4.636268],[-74.0923235,4.635875],[-74.0921143,4.6356263],[-74.0919453,4.6354151],[-74.0915913,4.635089],[-74.0913526,4.6348698],[-74.0909288,4.6346372],[-74.0902958,4.6343351],[-74.0895045,4.6340731],[-74.0892095,4.6339073],[-74.0865166,4.6329983],[-74.0860043,4.6328486],[-74.085677,4.6326989],[-74.0853659,4.6325813],[-74.0850655,4.6324022],[-74.084808,4.6322017],[-74.0845022,4.631953],[-74.0843547,4.6318113],[-74.0841509,4.6315413],[-74.0832389,4.6302153],[-74.0798142,4.6250764],[-74.0769979,4.6213335],[-74.0734986,4.6162238],[-74.0728066,4.6151704],[-74.0723291,4.6145662],[-74.0718571,4.6137749],[-74.0714172,4.6129675],[-74.0709907,4.6124114],[-74.0707922,4.6120718],[-74.0700841,4.6114836],[-74.0698266,4.6111628],[-74.06831378,4.60990131],[-74.06816079,4.6096909],[-74.06811963,4.60961384],[-74.06810044,4.60947569],[-74.06809551,4.60937134],[-74.06821193,4.6090627],[-74.06826607,4.60883296],[-74.06896938,4.60743122],[-74.06915759,4.60705388],[-74.06947564,4.60628039],[-74.07045137,4.60382059],[-74.0709743,4.60260911],[-74.07181822,4.60104861],[-74.07196125,4.60075804],[-74.07246901,4.60006928],[-74.07284795,4.60031686],[-74.0734501,4.59935727],[-74.07398366,4.59848496],[-74.07445547,4.5976969],[-74.07497421,4.5968345],[-74.07625423,4.59453776],[-74.07674417,4.59442147],[-74.07749617,4.59447149]]]}},
{"type":"Feature","properties":{"OBJECTID":10,"No":10,"identificador_del_tramo":"TRM10","Dirección":"Cl 26 entre Kr 60 y Kr 96I","Horario":"6:30 a 14:00","No_de_Guardianes":18,"No_de_Servidores":7,"No_de_Policias":3,"Fecha_Actualizacion":"2025-08-22T00:00:00","Estado":"Activa domingos y festivos","Nombre_Tramo":"Centro 5","GLOBALID":"{04D40AC4-EB46-4C33-BCD1-2431AB4913D2}","SHAPE.LEN":0.09530109},"geometry":{"type":"MultiLineString","coordinates":[[[-74.1264863,4.6862526],[-74.1253005,4.6853906],[-74.1240397,4.6846569],[-74.1230253,4.6838472],[-74.122234,4.683178],[-74.1218771,4.6826691],[-74.1210883,4.6815712],[-74.1203478,4.6805362],[-74.1199855,4.680032],[-74.1197467,4.6794717],[-74.1193379,4.6787105],[-74.1188432,4.6778986],[-74.1178325,4.6763763],[-74.1159076,4.6733103],[-74.113913,4.6702924],[-74.1119988,4.6672425],[-74.0993149,4.6475123],[-74.0995616,4.6473519],[-74.1033668,4.6532809],[-74.1055447,4.6566975],[-74.1075832,4.6598788],[-74.1086507,4.6616485],[-74.1098712,4.6634851],[-74.1115314,4.6660969],[-74.1119338,4.6667439],[-74.1137014,4.6693771],[-74.1153724,4.6720531],[-74.1191087,4.6779503],[-74.1218823,4.6818647],[-74.1227647,4.6829901],[-74.1230893,4.6832801],[-74.1237464,4.6837894],[-74.1244143,4.6843481],[-74.125514,4.6852089],[-74.1264984,4.6860002]]]}},
{"type":"Feature","properties":{"OBJECTID":11,"No":11,"identificador_del_tramo":"TRM11","Dirección":"Vía ascenso Parque Nacional entre la Av. Circunvalar y la Kr 5, Cl 36 y Cl 39 entre Kr 7 y Kr 5, Dg 40 entre Kr 7 y Kr 19, Dg 42A entre Kr 19 y Kr 22, Cl 42 entre Kr 22 y KR 24, Kr 24 entre Cl 45 y Cl 37, y Cl 37 entre Kr 24 y Cl 26","Horario":"7:00 a 14:00","No_de_Guardianes":12,"No_de_Servidores":0,"No_de_Policias":0,"Fecha_Actualizacion":"2025-08-22T00:00:00","Estado":"Activa domingos y festivos","Nombre_Tramo":"Centro 6","GLOBALID":"{3194D53C-AB6A-4A9B-91EB-B44E2C80F231}","SHAPE.LEN":0.04144953},"geometry":{"type":"MultiLineString","coordinates":[[[-74.0639024,4.624232],[-74.0637925,4.6241518],[-74.06372,4.6240796],[-74.0637254,4.6239539],[-74.0638032,4.6238336],[-74.0639668,4.6238283],[-74.0641412,4.6237454],[-74.0644818,4.6235903],[-74.0648197,4.6234727],[-74.0651979,4.6233177],[-74.0655761,4.623176],[-74.0658417,4.6231519],[-74.066185,4.6231947],[-74.066421,4.6233604]],[[-74.058337,4.6246631],[-74.0587286,4.6247166],[-74.059088,4.6247861],[-74.0592107,4.62477],[-74.0592717,4.6247299],[-74.0593415,4.6245895],[-74.0592972,4.6244652],[-74.0588573,4.6241284],[-74.0586951,4.6240001],[-74.0586374,4.6238343],[-74.058683,4.6237167],[-74.0588037,4.6236151],[-74.0588855,4.6236104],[-74.0589378,4.6236592],[-74.059029,4.6237274],[-74.0591058,4.623702],[-74.0591691,4.6236632],[-74.0592234,4.6235162],[-74.0592972,4.6233103],[-74.0594045,4.6232194],[-74.0595413,4.6232167],[-74.0597103,4.6232902],[-74.05978,4.6234226],[-74.0599409,4.6236157],[-74.0600321,4.6236244],[-74.0607094,4.6237367],[-74.0609119,4.6238343],[-74.0610715,4.6239439],[-74.0617058,4.6244332],[-74.0618265,4.6245214],[-74.0619633,4.6245668],[-74.0620944,4.6245491],[-74.0622014,4.624502],[-74.0624126,4.6244077],[-74.0625843,4.6242741],[-74.0627036,4.624123],[-74.0629504,4.6236471],[-74.0630363,4.6236178],[-74.063165,4.6236258],[-74.0632321,4.623698],[-74.0632562,4.6237862],[-74.0630684,4.6241498],[-74.0629702,4.6243152],[-74.0629497,4.6244539],[-74.0630188,4.6245147],[-74.0631207,4.6245535],[-74.0633527,4.6244546],[-74.0637913,4.6242581],[-74.0639884,4.6242126],[-74.0641614,4.6242487],[-74.0651552,4.6253849],[-74.065296,4.6256589],[-74.0654354,4.6257966],[-74.0656192,4.6258996],[-74.0658204,4.6259731],[-74.0660296,4.6261014],[-74.0662978,4.6266094],[-74.0665499,4.6269516],[-74.0668852,4.6272136],[-74.0671615,4.6272831],[-74.067478,4.6273259],[-74.0677204,4.6274402],[-74.0679601,4.6275625],[-74.0684046,4.6278953],[-74.0702567,4.6293844],[-74.0710775,4.6300782],[-74.0709863,4.6303937],[-74.071115,4.6304378],[-74.0718191,4.6309604],[-74.0740977,4.6329294],[-74.074154,4.6325552],[-74.0752537,4.6324215],[-74.0751813,4.6314377],[-74.0752135,4.6306516],[-74.0754937,4.6276146],[-74.0754294,4.626846],[-74.0754924,4.6265773],[-74.077091,4.626866],[-74.0777025,4.6265666],[-74.0793119,4.6258822],[-74.0797933,4.6256616],[-74.0794922,4.6251637],[-74.0794081,4.6250116],[-74.0793776,4.6248462],[-74.0794996,4.6247286],[-74.0796069,4.6247086],[-74.0797169,4.6247607],[-74.0802989,4.6255186]]]}},
{"type":"Feature","properties":{"OBJECTID":12,"No":12,"identificador_del_tramo":"TRM12","Dirección":"Av. Boyacá con Cl 39B Sur, Cl 40 Sur con Kr 72K , Dg 40 Sur con Cl 40C Sur, Kr 78 con Dg 44 Sur, Kr 77Y Bis con Cl 44 Sur, Kr 77K con Cl 52A Sur, Kr 77V Bis A con Dg 54A Sur, Kr 78 con Cl 57A Sur, Kr 80 con Cl 57A Sur, Kr 80 con Cl 59 Sur , Kr 80H con Cl 59 Sur, Tv 80H con Dg 69B Sur, Cl 65J Sur con Kr 77L, Cl 58 con Kr 7 (Soacha)","Horario":"7:00 a 14:00","No_de_Guardianes":15,"No_de_Servidores":3,"No_de_Policias":8,"Fecha_Actualizacion":"2025-08-22T00:00:00","Estado":"Activa domingos y festivos","Nombre_Tramo":"Sur 1","GLOBALID":"{03888EBC-D55F-4EC9-AF98-CB4A62D64DBE}","SHAPE.LEN":0.07830455},"geometry":{"type":"MultiLineString","coordinates":[[[-74.1875219,4.5956233],[-74.1872504,4.5969112],[-74.1867085,4.599359],[-74.188323,4.5998337],[-74.1892078,4.6000987],[-74.1896525,4.6001474],[-74.1899416,4.6019526],[-74.1900734,4.6022811],[-74.1920401,4.6055075],[-74.1891624,4.6072049],[-74.1890816,4.6071615],[-74.1889333,4.6069735],[-74.1888436,4.6069934],[-74.1871407,4.608755],[-74.1846198,4.6105353],[-74.1840823,4.6097302],[-74.183147,4.6103076],[-74.1823218,4.6108742],[-74.1820811,4.6104019],[-74.1818244,4.6098066],[-74.181555,4.6099368],[-74.1813676,4.6095154],[-74.1812161,4.6092985],[-74.1811318,4.6092607],[-74.1810274,4.6092279],[-74.1808776,4.6092157],[-74.1807766,4.6092395],[-74.1806871,4.6092977],[-74.1805941,4.6094088],[-74.1804402,4.6095616],[-74.1803308,4.6094821],[-74.1785725,4.6110478],[-74.1763797,4.6130385],[-74.1743544,4.6108763],[-74.1737026,4.6100693],[-74.1736756,4.6099092],[-74.1728079,4.6087466],[-74.1728386,4.6086374],[-74.1720257,4.6076543],[-74.1701633,4.6089143],[-74.1699603,4.6090951],[-74.1699352,4.6091956],[-74.1699397,4.6093068],[-74.169895,4.6094462],[-74.1697952,4.6096138],[-74.1697385,4.6097813],[-74.168614,4.6097775],[-74.1686304,4.6102262],[-74.168639,4.6104829],[-74.168146,4.6106099],[-74.1676508,4.6107063],[-74.1666685,4.6106877],[-74.1666687,4.6107576],[-74.165573,4.6107426],[-74.1655689,4.6105829],[-74.1634901,4.6105616],[-74.1634846,4.6106554],[-74.1614619,4.6105261],[-74.1614118,4.6116119],[-74.1613952,4.6118288],[-74.1598279,4.6122812],[-74.1591416,4.612541],[-74.1587187,4.6127586],[-74.157527,4.6137826],[-74.1568872,4.6143421],[-74.1567141,4.6144445],[-74.156493,4.6144914],[-74.1557181,4.6146278],[-74.1547343,4.6147911],[-74.1544676,4.6148125],[-74.154201,4.6147378],[-74.1533646,4.6143811],[-74.1526577,4.6141426],[-74.1524041,4.6140435],[-74.1522096,4.613832],[-74.1500494,4.6107858],[-74.1486979,4.6105202],[-74.1477705,4.6090757],[-74.1476902,4.609134],[-74.1475079,4.6090988],[-74.1472694,4.6089479],[-74.1462906,4.6087034],[-74.1449743,4.6082656],[-74.1437055,4.6071559],[-74.1419633,4.6064032]]]}},
{"type":"Feature","properties":{"OBJECTID":13,"No":13,"identificador_del_tramo":"TRM13","Dirección":"Av. Boyacá entre Cl 71F sur y Cl 44 sur","Horario":"7:00 a 14:00","No_de_Guardianes":18,"No_de_Servidores":14,"No_de_Policias":5,"Fecha_Actualizacion":"2025-08-22T00:00:00","Estado":"Activa domingos y festivos, Parcial en plan retorno","Nombre_Tramo":"Sur 2","GLOBALID":"{361701AB-454B-43B8-8C4F-954DB6264DBB}","SHAPE.LEN":0.08642595},"geometry":{"type":"MultiLineString","coordinates":[[[-74.1219424,4.5196011],[-74.1222612,4.5203518],[-74.1227303,4.5210222],[-74.123478,4.5218632],[-74.1249304,4.5234701],[-74.1256002,4.5242763],[-74.1259419,4.5249695],[-74.1260671,4.5253107],[-74.1261602,4.5256573],[-74.1262869,4.5264247],[-74.1263761,4.5272028],[-74.1271942,4.533505],[-74.1272793,4.5340338],[-74.1274208,4.5345598],[-74.1276132,4.5350378],[-74.1278378,4.5354837],[-74.1280825,4.5358413],[-74.1283809,4.5361989],[-74.1287303,4.5365458],[-74.1291065,4.5368553],[-74.1324324,4.5394743],[-74.1328535,4.5397999],[-74.1331888,4.540211],[-74.1337931,4.5412106],[-74.1343544,4.5423385],[-74.1351874,4.5438163],[-74.1354831,4.5444424],[-74.1357628,4.5450739],[-74.1364133,4.5462994],[-74.1366695,4.5469448],[-74.1367547,4.5472861],[-74.1367916,4.5476115],[-74.1367683,4.5480311],[-74.1361897,4.5505791],[-74.1361699,4.5512365],[-74.1363274,4.5520154],[-74.136611,4.55269],[-74.1369392,4.553687],[-74.1372808,4.5546654],[-74.1379641,4.5566167],[-74.1385142,4.5582354],[-74.139,4.5598327],[-74.1389995,4.5601434],[-74.1389507,4.5604381],[-74.1388585,4.5610328],[-74.1387033,4.5620075],[-74.138607,4.5629876],[-74.1384038,4.5639478],[-74.1379544,4.5668521],[-74.1379449,4.5673876],[-74.13804,4.5679604],[-74.1383053,4.5690046],[-74.1390481,4.5721309],[-74.139197,4.5721272],[-74.1394423,4.5731717],[-74.1400404,4.5754397],[-74.1406278,4.5766811],[-74.1415451,4.5786693],[-74.1423873,4.5807325],[-74.1427037,4.5815203],[-74.1429558,4.5823616],[-74.1430611,4.5834279],[-74.1432951,4.5843124],[-74.1441548,4.5862097],[-74.1453061,4.5891048],[-74.1454275,4.5925132],[-74.1453557,4.5959537],[-74.1452447,4.5975028],[-74.1448119,4.5990092]]]}},
{"type":"Feature","properties":{"OBJECTID":14,"No":14,"identificador_del_tramo":"TRM14","Dirección":"Cl 17 sur entre Kr 6 y Autopista Sur, Dg 16 sur entre Autopista Sur y Kr 50, Cl 39A sur entre Kr 50 y Kr 51, Kr 51 entre Cl 39A sur y Cl 42 sur, Cl 42 sur entre Kr 51 y Kr 68, Cl 39F sur entre Kr 68 y Kr 68A, Kr 68A entre Cl 39F sur y Cl 39 sur, Cl 39 sur entre Kr 68A y Kr 68L, Kr 68L entre Cl 39 Sur y Av. Boyacá","Horario":"7:00 a 14:00","No_de_Guardianes":15,"No_de_Servidores":9,"No_de_Policias":0,"Fecha_Actualizacion":"2025-08-22T00:00:00","Estado":"Activa domingos y festivos","Nombre_Tramo":"Sur 3","GLOBALID":"{A5400514-B600-4D1B-9DFC-8D0AC6A6FC39}","SHAPE.LEN":0.06991754},"geometry":{"type":"MultiLineString","coordinates":[[[-74.1419633,4.6064032],[-74.1418107,4.6063144],[-74.1416525,4.606293],[-74.1414312,4.6062756],[-74.1411093,4.6062609],[-74.1406091,4.6062676],[-74.1389824,4.6035484],[-74.1366435,4.5994418],[-74.1368634,4.5990782],[-74.1334919,4.5968431],[-74.132293,4.5958859],[-74.1317377,4.5954368],[-74.1313408,4.5952362],[-74.1307668,4.5947122],[-74.1287953,4.5971879],[-74.1269151,4.5956613],[-74.126325,4.595533]],[[-74.1190951,4.6067241],[-74.1179391,4.6041575],[-74.1178265,4.6039703],[-74.1157665,4.6007834],[-74.1156592,4.6006658],[-74.1155305,4.6005481],[-74.1100743,4.5979503],[-74.1099241,4.5980144],[-74.1095084,4.5976936],[-74.1105088,4.5971897],[-74.1065927,4.5917516],[-74.1047018,4.589709],[-74.1049378,4.5895272],[-74.1049512,4.5893962],[-74.1045355,4.5889631],[-74.1042412,4.5892219],[-74.1028069,4.5876839],[-74.1028265,4.5875066],[-74.1028139,4.58734],[-74.1025928,4.5871226],[-74.1024025,4.5872581],[-74.098858,4.5835084],[-74.098461,4.5833346],[-74.0981982,4.5831127],[-74.0981311,4.5831688],[-74.0973452,4.5824496],[-74.0966586,4.5818588],[-74.0929303,4.5784846],[-74.0925307,4.5781691],[-74.0915597,4.5775168],[-74.0907202,4.5770435],[-74.0896232,4.5763163],[-74.0890921,4.5760035]]]}},
{"type":"Feature","properties":{"OBJECTID":15,"No":15,"identificador_del_tramo":"TRM15","Dirección":"Kr 24 entre Av. Boyacá y Cl 44 sur, Cl 44 sur entre Kr 24 y Kr 33, Tv 42 entre Kr 33 y Dg 39A sur, Kr 50 entre Dg 39A sur y Autopista Norte","Horario":"7:00 a 14:00","No_de_Guardianes":12,"No_de_Servidores":0,"No_de_Policias":3,"Fecha_Actualizacion":"2025-08-22T00:00:00","Estado":"Activa domingos y festivos","Nombre_Tramo":"Sur 4","GLOBALID":"{972C31F3-C7BF-420B-85EE-1099AF63C770}","SHAPE.LEN":0.03157438},"geometry":{"type":"MultiLineString","coordinates":[[[-74.13945024,4.57326786],[-74.1307575,4.5768026],[-74.12987668,4.57720371],[-74.12932768,4.57773028],[-74.12872848,4.57843217],[-74.12783367,4.57877562],[-74.12550403,4.57938675],[-74.12600237,4.58073579],[-74.12626818,4.5813639],[-74.12653347,4.5819987],[-74.1269628,4.58304291],[-74.1274616,4.58419192],[-74.12817409,4.58581818],[-74.12852489,4.58666797],[-74.1284295,4.58695209],[-74.12820033,4.59011264],[-74.12819331,4.59041636],[-74.12808881,4.5907444],[-74.12781233,4.59109958],[-74.12722672,4.5918581],[-74.12714574,4.59189164],[-74.12708615,4.59193558],[-74.12705663,4.59199374],[-74.12705322,4.59206339],[-74.1270548,4.59217577],[-74.12693233,4.59241131],[-74.12655826,4.59333868],[-74.126448,4.59340526],[-74.12636975,4.59351204],[-74.12633813,4.59361769],[-74.12634013,4.59377122],[-74.12636822,4.59388586],[-74.12644262,4.59398894],[-74.12653514,4.59404983],[-74.12660701,4.59407256],[-74.12670185,4.59409057],[-74.12672258,4.59411888]]]}},
{"type":"Feature","properties":{"OBJECTID":16,"No":16,"identificador_del_tramo":"TRM16","Dirección":"Av. Guayacanes entre Av. Boyacá y Av. Tintal, Av Tintal entre Av. Guayacanes y Cl 6D, Cl 6D entre Av. Tintal y Ciclorruta Alameda, Ciclorruta Alameda entre Cl 6D y Cl 49 sur, Kr 95 A entre Cl 49 sur y Cl 54 sur, Cl 54 sur entre Kr 95A y Kr 100","Horario":"7:00 a 14:00","No_de_Guardianes":21,"No_de_Servidores":0,"No_de_Policias":2,"Fecha_Actualizacion":"2025-08-22T00:00:00","Estado":"Activa domingos y festivos","Nombre_Tramo":"Sur 5","GLOBALID":"{4D7414CC-43A8-4BA7-830E-C17AAAC8326B}","SHAPE.LEN":0.07600175},"geometry":{"type":"MultiLineString","coordinates":[[[-74.13010724,4.64618309],[-74.130442,4.64660571],[-74.13097085,4.64619502],[-74.13103371,4.64616216],[-74.13116371,4.64614902],[-74.1313963,4.64594226],[-74.13141093,4.64584901],[-74.13161879,4.6455775],[-74.13196165,4.64524692],[-74.13262874,4.6462941],[-74.13294705,4.64672722],[-74.13318642,4.64702276],[-74.13346023,4.6472925],[-74.13373381,4.64751929],[-74.13404287,4.64773254],[-74.13442011,4.64795964],[-74.13442251,4.64800514],[-74.1352104,4.64852133],[-74.1359865,4.64896203],[-74.13612361,4.64905423],[-74.13647441,4.64928035],[-74.13681151,4.64954462],[-74.13736637,4.64995105],[-74.13777715,4.65025145],[-74.13813015,4.65054966],[-74.13842334,4.6507605],[-74.13862283,4.65088064],[-74.13883258,4.65093462],[-74.14046064,4.65184762],[-74.14126837,4.65236126],[-74.14161351,4.65259525],[-74.14197032,4.65282944],[-74.14248296,4.65320236],[-74.14275989,4.6533924],[-74.14293576,4.65350146],[-74.14320573,4.65367461],[-74.1440796,4.6542048],[-74.14454148,4.65450542],[-74.14515918,4.65488893],[-74.14577622,4.65527027],[-74.14681947,4.65587576],[-74.14704004,4.65568509],[-74.14714666,4.65558663],[-74.14731574,4.65542513],[-74.14746862,4.65557082],[-74.1512967,4.65285493],[-74.1566087,4.64902844],[-74.15858868,4.65231351],[-74.161941,4.6506009],[-74.1636162,4.64975106],[-74.16418333,4.64925614],[-74.16619221,4.64841558],[-74.16631044,4.6485065],[-74.16776576,4.64780643],[-74.17156305,4.64633471],[-74.17176722,4.64621626],[-74.17233768,4.64604546],[-74.17346519,4.64560958],[-74.1739879,4.64549583],[-74.1748406,4.64503439],[-74.17586811,4.64453503],[-74.17610319,4.64458666],[-74.176789,4.6441952],[-74.17720244,4.64399877],[-74.17732582,4.6440116],[-74.17851478,4.64335523],[-74.17858438,4.64322138],[-74.17852856,4.64311019],[-74.17843706,4.64298466],[-74.17843805,4.64288134],[-74.17851131,4.64279735],[-74.17861335,4.64275],[-74.17870705,4.64268849],[-74.17881535,4.64280114],[-74.17900436,4.64314117],[-74.17913847,4.64307985],[-74.17937815,4.64311514],[-74.18054326,4.64249705],[-74.18085997,4.64209476],[-74.18113451,4.64183927],[-74.18143588,4.64160156],[-74.18179897,4.64146103],[-74.18207678,4.64120811],[-74.18224229,4.64093069],[-74.18251539,4.64059834],[-74.18278175,4.64051878],[-74.18288773,4.64031125],[-74.1835844,4.63995884],[-74.18422144,4.63966847],[-74.1844804,4.63947917],[-74.18750303,4.63798218],[-74.18759937,4.63816507],[-74.18766619,4.63815588],[-74.18767692,4.63815589],[-74.18768764,4.6381559],[-74.18770634,4.63815895],[-74.18778628,4.63820804],[-74.18787,4.63814708],[-74.19001123,4.64239811]]]}}
]
}
